[{"OBJECT_NAME":"STARLINK-34435","OBJECT_ID":"2025-137J","EPOCH":"2026-03-09T22:52:47.555616","MEAN_MOTION":15.30203374,"ECCENTRICITY":0.00012293,"INCLINATION":53.1582,"RA_OF_ASC_NODE":334.1271,"ARG_OF_PERICENTER":127.801,"MEAN_ANOMALY":232.3102,"EPHEMERIS_TYPE":0,"CLASSIFICATION_TYPE":"U","NORAD_CAT_ID":64602,"ELEMENT_SET_NO":999,"REV_AT_EPOCH":4077,"BSTAR":0.00059822636,"MEAN_MOTION_DOT":0.00017402,"MEAN_MOTION_DDOT":0},{"OBJECT_NAME":"TRANSPORTER-1 OBJECT M","OBJECT_ID":"2021-006M","EPOCH":"2026-03-09T22:05:37.843296","MEAN_MOTION":15.3227845,"ECCENTRICITY":0.00102759,"INCLINATION":97.2377,"RA_OF_ASC_NODE":116.7915,"ARG_OF_PERICENTER":187.5492,"MEAN_ANOMALY":172.5597,"EPHEMERIS_TYPE":0,"CLASSIFICATION_TYPE":"U","NORAD_CAT_ID":47424,"ELEMENT_SET_NO":999,"REV_AT_EPOCH":28439,"BSTAR":0.00023985652,"MEAN_MOTION_DOT":7.411e-5,"MEAN_MOTION_DDOT":0}]
